#aV2015 12  7  0  0  0.00000000     288 DD+AD WGS84 FIT  NGA
## 1874  86400.00000000   300.00000000 57363 0.0000000000000
+   31     1  2  3  5  6  7  8  9 10 11 12 13 14 15 16 17 18
+         19 20 21 22 23 24 25 26 27 28 29 30 31 32  0  0  0
+          0  0  0  0  0  0  0  0  0  0  0  0  0  0  0  0  0
+          0  0  0  0  0  0  0  0  0  0  0  0  0  0  0  0  0
+          0  0  0  0  0  0  0  0  0  0  0  0  0  0  0  0  0
++         2  2  2  2  2  2  2  2  2  2  2  2  2  2  2  2  2
++         2  2  2  2  2  2  2  2  2  2  2  2  2  2  0  0  0
++         0  0  0  0  0  0  0  0  0  0  0  0  0  0  0  0  0
++         0  0  0  0  0  0  0  0  0  0  0  0  0  0  0  0  0
++         0  0  0  0  0  0  0  0  0  0  0  0  0  0  0  0  0
%c cc cc ccc ccc cccc cccc cccc cccc ccccc ccccc ccccc ccccc
%c cc cc ccc ccc cccc cccc cccc cccc ccccc ccccc ccccc ccccc
%f  0.0000000  0.000000000  0.00000000000  0.000000000000000
%f  0.0000000  0.000000000  0.00000000000  0.000000000000000
%i    0    0    0    0      0      0      0      0         0
%i    0    0    0    0      0      0      0      0         0
/*      NGA, ST. LOUIS,MO.                                  
/*   EPHEMERIS COMPUTED FROM 2 DAYS OF DATA                 
/*   EPOCHA v2.4 SMOOTHER                                   
/*   G1762 IERS2010 SATAF SATAPC                            
*  2015 12  7 23 30  0.00000000
P  1 -19714.255305  -8928.277886  15459.678001      6.137074                    
V  1 -10042.061816 -17022.280580 -22323.579417      0.008584                    
P  2  13346.928236  22776.188581   4969.110430    597.461597                    
V  2  -5853.504334  -2717.804902  30221.081998      0.007036                    
P  3 -16174.469671     24.326877  21069.693132      5.259771                    
V  3  10162.768403 -24762.560260   7811.984233     -0.048633                    
P  5   5935.705687  18748.786919 -17830.601054   -167.239148                    
V  5 -10721.122888  20016.364025  17738.934662      0.036897                    
P  6   2668.404776  21567.136221  15276.249951    108.323342                    
V  6 -13065.407244 -14461.113709  22686.614483      0.064995                    
P  7 -13661.776073   6518.280124 -21716.940346    478.099967                    
V  7 -15839.092985 -22891.474770   2697.112176     -0.012195                    
P  8 -22219.706918  -6552.642109 -12936.212714    -15.338063                    
V  8  16149.888571  -4114.633111 -25554.624361     -0.014602                    
P  9 -23742.784202   8592.192911  -8269.790156     23.923613                    
V  9 -10728.402504  -1515.370875  29265.553481      0.075746                    
P 10  10590.182862 -24333.384705     40.413174     38.705949                    
V 10   2686.452397   1124.018051 -31744.213690      0.070499                    
P 11 -23863.712609  -9229.117982   6696.551888   -620.474427                    
V 11  -5218.038056  -8978.791610 -28554.018206     -0.022357                    
P 12  14519.055976   3101.515160  21894.941196    351.524687                    
V 12 -12231.964995  25192.721766   4728.327244      0.029955                    
P 13  14508.066632  12602.575805 -18426.984983   -169.769278                    
V 13 -23130.038975   1256.219552 -17572.649280     -0.027120                    
P 14  11093.998537 -14068.025003  19810.162976     16.884481                    
V 14  24669.113807    386.338376 -13859.129433     -0.023831                    
P 15  24061.220744   4276.486116 -10926.619933   -286.034191                    
V 15 -12997.256939   5077.251645 -26567.602187     -0.019455                    
P 16  -3621.062974 -18844.792388 -18271.119755    -59.448405                    
V 16  11859.871237 -19873.197740  18589.788886      0.034959                    
P 17 -11145.374147  14137.066207  19771.607687   -195.987240                    
V 17 -24473.951468    441.182920 -14546.810294     -0.008987                    
P 18  15664.174032 -18573.538214  -9884.877319    460.470746                    
V 18  -1546.404017  13899.157504 -27447.535862      0.037859                    
P 19 -21225.514550   9286.902705  13174.033481   -523.512564                    
V 19 -16913.842711  -1487.271876 -25347.217629     -0.003874                    
P 20  16019.227043   2515.590139 -21201.445326    376.686604                    
V 20  -8452.540751  25317.365678  -3339.901225      0.028162                    
P 21  11111.352725 -10792.520914 -20844.325558   -498.146067                    
V 21  17551.570078  22180.895912  -2362.767466     -0.022776                    
P 22   8383.862161 -25014.648225   2302.266418    417.545264                    
V 22   4851.045201   -903.270414 -30810.177074      0.032753                    
P 23 -26537.017530     43.239750   3892.072317   -148.514157                    
V 23   4356.046199  -3288.699510  30666.843659     -0.020043                    
P 24  20290.989958  11118.515805  13161.409971     -8.961480                    
V 24   8272.625966  14729.144154 -24947.056974     -0.006009                    
P 25  17205.188766 -11239.733765  16625.130910    -79.280778                    
V 25  -7153.240705  20160.421137  21076.856835     -0.060075                    
P 26   3132.829175 -24455.156432  -9844.771863   -155.148334                    
V 26   7327.468698 -10461.273169  28324.684058     -0.169931                    
P 27 -12933.736459 -12201.512856 -19795.753225     42.392235                    
V 27  24747.749796  -3807.227673 -13709.595671      0.032789                    
P 28 -12120.310824  23587.726195    587.570570    486.713087                    
V 28  -1724.790221   -950.137842 -32415.342039      0.026903                    
P 29  25338.423033  -5310.081283  -5832.346822    647.440641                    
V 29   7534.072155   1890.845843  30958.283173      0.014044                    
P 30  -5887.019124  16829.928352 -19661.300389     67.830028                    
V 30 -14422.952120 -20477.261565 -13287.237841      0.052873                    
P 31  -3086.136091 -21969.660114  14456.830377    292.192540                    
V 31  11972.963591  13935.283510  24282.986605     -0.015234                    
P 32 -10285.687939 -12709.902884  20945.066234     40.832773                    
V 32  13153.099856 -23261.706227  -7097.448834      0.120081                    
EOF
